start=new Date('2022-05-08T00:00:00.000Z').valueOf();
sats=[{"ELEMENT_SET_NO":"999","NORAD_CAT_ID":"47898","GP_ID":"202929253","REF_FRAME":"TEME","CLASSIFICATION_TYPE":"U","PERIAPSIS":"546.008","APOAPSIS":"548.534","LAUNCH_DATE":"2021-03-14","MEAN_MOTION":"15.06381163","SITE":"AFETR","MEAN_ELEMENT_THEORY":"SGP4","MEAN_MOTION_DDOT":"0.0000000000000","TLE_LINE2":"2 47898  53.0562  85.8878 0001824  61.2098 298.9074 15.06381163 64388","DECAY_DATE":null,"OBJECT_NAME":"STARLINK-2358","RA_OF_ASC_NODE":"85.8878","INCLINATION":"53.0562","MEAN_ANOMALY":"298.9074","ECCENTRICITY":"0.00018240","COUNTRY_CODE":"US","MEAN_MOTION_DOT":"0.00000048","FILE":"3434010","OBJECT_ID":"2021-021AQ","CENTER_NAME":"EARTH","EPOCH":"2022-05-07T14:14:36.192480","TIME_SYSTEM":"UTC","PERIOD":"95.593","OBJECT_TYPE":"PAYLOAD","ARG_OF_PERICENTER":"61.2098","RCS_SIZE":"LARGE","REV_AT_EPOCH":"6438","SEMIMAJOR_AXIS":"6925.406","TLE_LINE1":"1 47898U 21021AQ  22127.59347445  .00000048  00000-0  22119-4 0  9998","BSTAR":"0.00002211900000","EPHEMERIS_TYPE":"0"},{"PERIOD":"95.592","TIME_SYSTEM":"UTC","EPOCH":"2022-05-07T14:10:35.096736","CENTER_NAME":"EARTH","FILE":"3434009","OBJECT_ID":"2021-021AR","COUNTRY_CODE":"US","MEAN_ANOMALY":"295.8884","ECCENTRICITY":"0.00018290","MEAN_MOTION_DOT":"0.00000439","TLE_LINE1":"1 47899U 21021AR  22127.59068399  .00000439  00000-0  48342-4 0  9997","SEMIMAJOR_AXIS":"6925.345","EPHEMERIS_TYPE":"0","BSTAR":"0.00004834200000","REV_AT_EPOCH":"6453","RCS_SIZE":"LARGE","OBJECT_TYPE":"PAYLOAD","ARG_OF_PERICENTER":"64.2294","APOAPSIS":"548.477","MEAN_MOTION":"15.06401192","LAUNCH_DATE":"2021-03-14","PERIAPSIS":"545.943","GP_ID":"202929236","REF_FRAME":"TEME","CLASSIFICATION_TYPE":"U","NORAD_CAT_ID":"47899","ELEMENT_SET_NO":"999","RA_OF_ASC_NODE":"75.8920","INCLINATION":"53.0548","TLE_LINE2":"2 47899  53.0548  75.8920 0001829  64.2294 295.8884 15.06401192 64533","MEAN_MOTION_DDOT":"0.0000000000000","MEAN_ELEMENT_THEORY":"SGP4","DECAY_DATE":null,"OBJECT_NAME":"STARLINK-2359","SITE":"AFETR"},{"RCS_SIZE":"LARGE","REV_AT_EPOCH":"6480","OBJECT_TYPE":"PAYLOAD","ARG_OF_PERICENTER":"59.7877","SEMIMAJOR_AXIS":"6925.357","TLE_LINE1":"1 47900U 21021AS  22127.15019634 -.00000647  00000-0 -24508-4 0  9991","BSTAR":"-0.00002450800000","EPHEMERIS_TYPE":"0","OBJECT_ID":"2021-021AS","FILE":"3433971","CENTER_NAME":"EARTH","ECCENTRICITY":"0.00017600","MEAN_ANOMALY":"300.3286","COUNTRY_CODE":"US","MEAN_MOTION_DOT":"-0.00000647","PERIOD":"95.592","EPOCH":"2022-05-07T03:36:16.963776","TIME_SYSTEM":"UTC","MEAN_MOTION_DDOT":"0.0000000000000","MEAN_ELEMENT_THEORY":"SGP4","TLE_LINE2":"2 47900  53.0561  87.8730 0001760  59.7877 300.3286 15.06397316 64803","OBJECT_NAME":"STARLINK-2360","DECAY_DATE":null,"SITE":"AFETR","RA_OF_ASC_NODE":"87.8730","INCLINATION":"53.0561","GP_ID":"202924638","CLASSIFICATION_TYPE":"U","REF_FRAME":"TEME","ELEMENT_SET_NO":"999","NORAD_CAT_ID":"47900","APOAPSIS":"548.441","LAUNCH_DATE":"2021-03-14","MEAN_MOTION":"15.06397316","PERIAPSIS":"546.003"},{"EPOCH":"2022-05-07T04:09:27.738144","TIME_SYSTEM":"UTC","PERIOD":"95.593","MEAN_MOTION_DOT":"-0.00001580","COUNTRY_CODE":"US","MEAN_ANOMALY":"308.2225","ECCENTRICITY":"0.00019630","CENTER_NAME":"EARTH","FILE":"3433971","OBJECT_ID":"2021-021AT","EPHEMERIS_TYPE":"0","BSTAR":"-0.00008722900000","TLE_LINE1":"1 47901U 21021AT  22127.17323771 -.00001580  00000-0 -87229-4 0  9990","SEMIMAJOR_AXIS":"6925.379","ARG_OF_PERICENTER":"51.8940","OBJECT_TYPE":"PAYLOAD","REV_AT_EPOCH":"6493","RCS_SIZE":"LARGE","PERIAPSIS":"545.884","MEAN_MOTION":"15.06390229","LAUNCH_DATE":"2021-03-14","APOAPSIS":"548.603","NORAD_CAT_ID":"47901","ELEMENT_SET_NO":"999","CLASSIFICATION_TYPE":"U","REF_FRAME":"TEME","GP_ID":"202924888","INCLINATION":"53.0560","RA_OF_ASC_NODE":"77.7571","SITE":"AFETR","DECAY_DATE":null,"OBJECT_NAME":"STARLINK-2361","TLE_LINE2":"2 47901  53.0560  77.7571 0001963  51.8940 308.2225 15.06390229 64933","MEAN_ELEMENT_THEORY":"SGP4","MEAN_MOTION_DDOT":"0.0000000000000"},{"CENTER_NAME":"EARTH","OBJECT_ID":"2021-021AU","FILE":"3433971","COUNTRY_CODE":"US","MEAN_ANOMALY":"308.6491","ECCENTRICITY":"0.00018540","MEAN_MOTION_DOT":"0.00001292","PERIOD":"95.592","EPOCH":"2022-05-07T10:19:41.705184","TIME_SYSTEM":"UTC","REV_AT_EPOCH":"6480","RCS_SIZE":"LARGE","OBJECT_TYPE":"PAYLOAD","ARG_OF_PERICENTER":"51.4664","TLE_LINE1":"1 47902U 21021AU  22127.43034381  .00001292  00000-0  10559-3 0  9995","SEMIMAJOR_AXIS":"6925.342","EPHEMERIS_TYPE":"0","BSTAR":"0.00010559000000","GP_ID":"202925639","REF_FRAME":"TEME","CLASSIFICATION_TYPE":"U","NORAD_CAT_ID":"47902","ELEMENT_SET_NO":"999","APOAPSIS":"548.491","MEAN_MOTION":"15.06402231","LAUNCH_DATE":"2021-03-14","PERIAPSIS":"545.923","TLE_LINE2":"2 47902  53.0556  96.5966 0001854  51.4664 308.6491 15.06402231 64806","MEAN_ELEMENT_THEORY":"SGP4","MEAN_MOTION_DDOT":"0.0000000000000","DECAY_DATE":null,"OBJECT_NAME":"STARLINK-2362","SITE":"AFETR","RA_OF_ASC_NODE":"96.5966","INCLINATION":"53.0556"},{"BSTAR":"0.00005447300000","EPHEMERIS_TYPE":"0","SEMIMAJOR_AXIS":"6925.342","TLE_LINE1":"1 47903U 21021AV  22127.25526545  .00000530  00000-0  54473-4 0  9992","ARG_OF_PERICENTER":"46.3779","OBJECT_TYPE":"PAYLOAD","RCS_SIZE":"LARGE","REV_AT_EPOCH":"6529","TIME_SYSTEM":"UTC","EPOCH":"2022-05-07T06:07:34.934880","PERIOD":"95.592","MEAN_MOTION_DOT":"0.00000530","ECCENTRICITY":"0.00024660","MEAN_ANOMALY":"313.7414","COUNTRY_CODE":"US","FILE":"3433971","OBJECT_ID":"2021-021AV","CENTER_NAME":"EARTH","INCLINATION":"53.0556","RA_OF_ASC_NODE":"77.3927","SITE":"AFETR","DECAY_DATE":null,"OBJECT_NAME":"STARLINK-2363","MEAN_ELEMENT_THEORY":"SGP4","MEAN_MOTION_DDOT":"0.0000000000000","TLE_LINE2":"2 47903  53.0556  77.3927 0002466  46.3779 313.7414 15.06401990 65298","PERIAPSIS":"545.500","LAUNCH_DATE":"2021-03-14","MEAN_MOTION":"15.06401990","APOAPSIS":"548.915","ELEMENT_SET_NO":"999","NORAD_CAT_ID":"47903","CLASSIFICATION_TYPE":"U","REF_FRAME":"TEME","GP_ID":"202926387"},{"MEAN_ELEMENT_THEORY":"SGP4","MEAN_MOTION_DDOT":"0.0000000000000","TLE_LINE2":"2 47904  53.0568  78.0116 0001888  57.8101 302.3071 15.06397056 64911","OBJECT_NAME":"STARLINK-2364","DECAY_DATE":null,"SITE":"AFETR","RA_OF_ASC_NODE":"78.0116","INCLINATION":"53.0568","GP_ID":"202925138","CLASSIFICATION_TYPE":"U","REF_FRAME":"TEME","ELEMENT_SET_NO":"999","NORAD_CAT_ID":"47904","APOAPSIS":"548.530","LAUNCH_DATE":"2021-03-14","MEAN_MOTION":"15.06397056","PERIAPSIS":"545.915","RCS_SIZE":"LARGE","REV_AT_EPOCH":"6491","OBJECT_TYPE":"PAYLOAD","ARG_OF_PERICENTER":"57.8101","SEMIMAJOR_AXIS":"6925.358","TLE_LINE1":"1 47904U 21021AW  22127.11889007  .00000329  00000-0  40969-4 0  9994","BSTAR":"0.00004096900000","EPHEMERIS_TYPE":"0","OBJECT_ID":"2021-021AW","FILE":"3433971","CENTER_NAME":"EARTH","ECCENTRICITY":"0.00018880","MEAN_ANOMALY":"302.3071","COUNTRY_CODE":"US","MEAN_MOTION_DOT":"0.00000329","PERIOD":"95.592","TIME_SYSTEM":"UTC","EPOCH":"2022-05-07T02:51:12.102048"},{"EPOCH":"2022-05-07T20:16:49.311552","TIME_SYSTEM":"UTC","PERIOD":"95.592","MEAN_MOTION_DOT":"0.00000026","COUNTRY_CODE":"US","ECCENTRICITY":"0.00016960","MEAN_ANOMALY":"311.7976","CENTER_NAME":"EARTH","OBJECT_ID":"2021-021AX","FILE":"3434014","EPHEMERIS_TYPE":"0","BSTAR":"0.00002067400000","TLE_LINE1":"1 47905U 21021AX  22127.84501518  .00000026  00000-0  20674-4 0  9998","SEMIMAJOR_AXIS":"6925.362","ARG_OF_PERICENTER":"48.3158","OBJECT_TYPE":"PAYLOAD","REV_AT_EPOCH":"6457","RCS_SIZE":"LARGE","PERIAPSIS":"546.052","MEAN_MOTION":"15.06395665","LAUNCH_DATE":"2021-03-14","APOAPSIS":"548.401","NORAD_CAT_ID":"47905","ELEMENT_SET_NO":"999","CLASSIFICATION_TYPE":"U","REF_FRAME":"TEME","GP_ID":"202929640","INCLINATION":"53.0553","RA_OF_ASC_NODE":"74.7491","SITE":"AFETR","OBJECT_NAME":"STARLINK-2365","DECAY_DATE":null,"TLE_LINE2":"2 47905  53.0553  74.7491 0001696  48.3158 311.7976 15.06395665 64573","MEAN_MOTION_DDOT":"0.0000000000000","MEAN_ELEMENT_THEORY":"SGP4"},{"RCS_SIZE":"LARGE","REV_AT_EPOCH":"6702","OBJECT_TYPE":"PAYLOAD","ARG_OF_PERICENTER":"95.4169","SEMIMAJOR_AXIS":"6717.857","TLE_LINE1":"1 47906U 21021AY  22127.45748372 -.00004362  00000-0 -22656-4 0  9998","BSTAR":"-0.00002265600000","EPHEMERIS_TYPE":"0","OBJECT_ID":"2021-021AY","FILE":"3433971","CENTER_NAME":"EARTH","ECCENTRICITY":"0.00015260","MEAN_ANOMALY":"264.7024","COUNTRY_CODE":"US","MEAN_MOTION_DOT":"-0.00004362","PERIOD":"91.328","EPOCH":"2022-05-07T10:58:46.593408","TIME_SYSTEM":"UTC","MEAN_ELEMENT_THEORY":"SGP4","MEAN_MOTION_DDOT":"0.0000000000000","TLE_LINE2":"2 47906  53.0384 298.1107 0001526  95.4169 264.7024 15.76727593 67029","DECAY_DATE":null,"OBJECT_NAME":"STARLINK-2366","SITE":"AFETR","RA_OF_ASC_NODE":"298.1107","INCLINATION":"53.0384","GP_ID":"202926139","CLASSIFICATION_TYPE":"U","REF_FRAME":"TEME","ELEMENT_SET_NO":"999","NORAD_CAT_ID":"47906","APOAPSIS":"340.747","LAUNCH_DATE":"2021-03-14","MEAN_MOTION":"15.76727593","PERIAPSIS":"338.696"},{"NORAD_CAT_ID":"47907","ELEMENT_SET_NO":"999","GP_ID":"202925888","CLASSIFICATION_TYPE":"U","REF_FRAME":"TEME","PERIAPSIS":"545.766","APOAPSIS":"548.638","MEAN_MOTION":"15.06403729","LAUNCH_DATE":"2021-03-14","SITE":"AFETR","TLE_LINE2":"2 47907  53.0544  97.0905 0002074  48.0284 312.0881 15.06403729 64649","MEAN_MOTION_DDOT":"0.0000000000000","MEAN_ELEMENT_THEORY":"SGP4","DECAY_DATE":null,"OBJECT_NAME":"STARLINK-2367","RA_OF_ASC_NODE":"97.0905","INCLINATION":"53.0544","COUNTRY_CODE":"US","ECCENTRICITY":"0.00020740","MEAN_ANOMALY":"312.0881","MEAN_MOTION_DOT":"-0.00000351","CENTER_NAME":"EARTH","OBJECT_ID":"2021-021AZ","FILE":"3433971","TIME_SYSTEM":"UTC","EPOCH":"2022-05-07T07:45:46.451520","PERIOD":"95.592","OBJECT_TYPE":"PAYLOAD","ARG_OF_PERICENTER":"48.0284","REV_AT_EPOCH":"6464","RCS_SIZE":"LARGE","TLE_LINE1":"1 47907U 21021AZ  22127.32345430 -.00000351  00000-0 -46302-5 0  9992","SEMIMAJOR_AXIS":"6925.337","EPHEMERIS_TYPE":"0","BSTAR":"-0.00000463020000"}];
